ONEWEB-0080             
1 45426U 20020C   25270.88502130 -.00000017  00000+0 -84522-4 0  9992
2 45426  87.8802  73.3094 0001317  99.9778 260.1499 13.11418238268327
ONEWEB-0090             
1 45427U 20020D   25270.90452928  .00000554  00000+0  15266-2 0  9996
2 45427  87.8800  73.3061 0001614  93.1720 266.9592 13.11416145268292
ONEWEB-0061             
1 45428U 20020E   25271.01290463 -.00000448  00000+0 -12993-2 0  9992
2 45428  87.8791  73.2642 0001552  92.3028 267.8278 13.11414500268260
ONEWEB-0081             
1 45429U 20020F   25270.99438499  .00000240  00000+0  64080-3 0  9995
2 45429  87.8792  73.2869 0001477  83.9189 276.2107 13.11413633268376
ONEWEB-0069             
1 45430U 20020G   25270.90707126  .00000531  00000+0  14635-2 0  9997
2 45430  87.8798  73.3000 0001606  87.0774 273.0538 13.11415508268298
ONEWEB-0031             
1 45431U 20020H   25270.87907347 -.00000380  00000+0 -11074-2 0  9999
2 45431  87.8795  73.3334 0001628  99.1459 260.9853 13.11417097268272
ONEWEB-0027             
1 45432U 20020J   25270.87045456  .00000021  00000+0  20772-4 0  9991
2 45432  87.9076  58.0078 0001923 103.8826 256.2519 13.17651250271818
ONEWEB-0064             
1 45433U 20020K   25270.95368350 -.00000346  00000+0 -10114-2 0  9991
2 45433  87.8791  73.3095 0001696  97.2043 262.9278 13.11418088268316
